OSCAR 7 (AO-7)          
1 07530U 74089B   21234.87721014 -.00000039  00000-0  44434-4 0  9991
2 07530 101.8598 209.3239 0011804 254.8505 132.6417 12.53649946140053
PHASE 3B (AO-10)        
1 14129U 83058B   21234.56442578 -.00000165  00000-0  00000-0 0  9997
2 14129  26.2288 144.0729 5992455   1.7981 359.6437  2.05870320259256
UOSAT 2 (UO-11)         
1 14781U 84021B   21234.70596525  .00000127  00000-0  21631-4 0  9994
2 14781  97.5957 231.2937 0007419 215.3926 144.6797 14.83314278995755
LUSAT (LO-19)           
1 20442U 90005G   21234.81980477  .00000000  00000-0  16546-4 0  9998
2 20442  98.7463 190.9081 0011236 331.3622  28.6943 14.32994506650334
EYESAT A (AO-27)        
1 22825U 93061C   21234.91400970 -.00000003  00000-0  16763-4 0  9991
2 22825  98.9162 254.1545 0008125 194.1994 165.8960 14.30122124455756
ITAMSAT (IO-26)         
1 22826U 93061D   21235.00855854  .00000003  00000-0  18982-4 0  9992
2 22826  98.9105 254.1538 0008907 181.3736 178.7423 14.30462158455993
RADIO ROSTO (RS-15)     
1 23439U 94085A   21234.86588667 -.00000037  00000-0  15882-3 0  9991
2 23439  64.8145 268.5507 0163067 323.6032  35.3893 11.27570199 97825
JAS-2 (FO-29)           
1 24278U 96046B   21234.99821795 -.00000010  00000-0  28005-4 0  9991
2 24278  98.5623 294.1396 0349941 337.4143  21.1911 13.53105209235494
TECHSAT 1B (GO-32)      
1 25397U 98043D   21234.81916268 -.00000022  00000-0  10010-4 0  9994
2 25397  98.7741 180.2020 0000343 196.6472 163.4695 14.23713683201153
ISS (ZARYA)             
1 25544U 98067A   21235.59429477  .00001308  00000-0  32396-4 0  9999
2 25544  51.6452   9.3834 0002765 304.7915 159.7579 15.48505403299043
PCSAT (NO-44)           
1 26931U 01043C   21235.01208149  .00000002  00000-0  32340-4 0  9995
2 26931  67.0508 108.6643 0005569 264.9265  95.1201 14.30629131 38870
SAUDISAT 1C (SO-50)     
1 27607U 02058C   21235.18452372  .00000038  00000-0  25996-4 0  9998
2 27607  64.5553 134.2828 0048906   0.4445 359.6692 14.75778147  4560
CUTE-1 (CO-55)          
1 27844U 03031E   21234.95455657  .00000057  00000-0  45206-4 0  9993
2 27844  98.6809 242.1586 0008741 243.5708 116.4574 14.22327062941476
CUBESAT XI-IV (CO-57)   
1 27848U 03031J   21234.82682527  .00000043  00000-0  39338-4 0  9995
2 27848  98.6864 242.5932 0008559 259.1634 100.8580 14.21901995941272
MOZHAYETS 4 (RS-22)     
1 27939U 03042A   21235.49766221  .00000044  00000-0  16571-4 0  9991
2 27939  98.1499  12.1566 0014186  70.5724 289.7016 14.67012391957354
CUBESAT XI-V            
1 28895U 05043F   21234.79371130  .00000134  00000-0  34529-4 0  9992
2 28895  98.0675   6.6148 0016728   6.4056 353.7358 14.63946288843942
FALCONSAT-3             
1 30776U 07006E   21235.47824226  .00004991  00000-0  11748-3 0  9991
2 30776  35.4351  29.2634 0001867 179.1886 180.8845 15.41410964803453
CUTE-1.7+APD II (CO-65) 
1 32785U 08021C   21235.47694657  .00000303  00000-0  37974-4 0  9997
2 32785  97.6166 211.7395 0013962 135.9624 224.2709 14.88776184722215
DELFI-C3 (DO-64)        
1 32789U 08021G   21234.85235352  .00001872  00000-0  12128-3 0  9990
2 32789  97.3727 267.6572 0009826 274.3608  85.6499 15.09272999726847
SEEDS II (CO-66)        
1 32791U 08021J   21234.37922340  .00000513  00000-0  56488-4 0  9999
2 32791  97.5758 216.5284 0014724 104.7719 255.5133 14.91483253722601
YUBILEINY (RS-30)       
1 32953U 08025A   21235.51174367  .00000021  00000-0  80971-4 0  9996
2 32953  82.5063   9.2196 0019629 188.2466 171.8295 12.43104039601318
KKS-1 (KISEKI)          
1 33499U 09002H   21234.85393240  .00000130  00000-0  26870-4 0  9996
2 33499  98.2591 106.2717 0008869 180.9418 179.1775 14.75687083676207
SWISSCUBE               
1 35932U 09051B   21234.85216728  .00000145  00000-0  43595-4 0  9998
2 35932  98.5991  76.9485 0006419 240.5592 119.4964 14.56566942632622
BEESAT-1                
1 35933U 09051C   21235.50220896  .00000116  00000-0  37070-4 0  9992
2 35933  98.5949  79.4122 0004561 252.7584 107.3114 14.56620942632875
ITUPSAT1                
1 35935U 09051E   21234.85901153  .00000103  00000-0  34805-4 0  9992
2 35935  98.6052  78.8738 0006851 257.4733 102.5698 14.55750598632437
XIWANG-1 (HOPE-1)       
1 36122U 09072B   21234.72884252 -.00000011  00000-0  82763-4 0  9995
2 36122 100.1367 212.6608 0006795 312.8280  47.2263 13.16362276561610
JUGNU                   
1 37839U 11058B   21235.21967628  .00000287  00000-0  11005-4 0  9997
2 37839  19.9599 184.2750 0019120 108.6704  27.1820 14.12721666510024
SRMSAT                  
1 37841U 11058D   21235.19654433  .00000307  00000-0  23542-4 0  9996
2 37841  19.9713 257.6815 0011704 307.9399 118.2925 14.10701461509290
M-CUBED & EXP-1 PRIME   
1 37855U 11061F   21235.50706356  .00001165  00000-0  63157-4 0  9991
2 37855 101.7146 193.7066 0165517 231.1164 127.5187 15.08027450536754
STRAND-1                
1 39090U 13009E   21234.84789452  .00000123  00000-0  57946-4 0  9994
2 39090  98.4240  75.4691 0010385  81.7639 278.4724 14.35177961444586
SOMP                    
1 39134U 13015E   21234.84162545  .00001969  00000-0  92150-4 0  9993
2 39134  64.8644 316.5171 0015352 319.1284  40.8692 15.22911525461320
BEESAT-3                
1 39135U 13015F   21235.11451996  .00001654  00000-0  86525-4 0  9996
2 39135  64.8676 345.9270 0011994 340.1245  19.9413 15.19633314461164
BEESAT-2                
1 39136U 13015G   21235.40448327  .00001590  00000-0  84950-4 0  9992
2 39136  64.8755 351.6616 0019171 242.8030 117.1143 15.18969990461089
ZACUBE-1 (TSHEPISOSAT)  
1 39417U 13066B   21234.90788337  .00000305  00000-0  44375-4 0  9992
2 39417  97.5979 215.8099 0057255 304.3049  55.2753 14.81571408418912
GOMX-1                  
1 39430U 13066Q   21235.09517330  .00000175  00000-0  41047-4 0  9999
2 39430  97.8100 154.3340 0148923 265.1093  93.3094 14.59658313412762
CUBEBUG-2 (LO-74)       
1 39440U 13066AA  21234.87631528  .00000329  00000-0  52168-4 0  9998
2 39440  97.6817 200.9633 0080445  21.0813 339.3681 14.76292097416224
FUNCUBE-1 (AO-73)       
1 39444U 13066AE  21234.91858041  .00000378  00000-0  52347-4 0  9991
2 39444  97.5882 218.1958 0056121 294.0394  65.4953 14.82491013417282
UWE-3                   
1 39446U 13066AG  21234.87020702  .00000347  00000-0  52180-4 0  9994
2 39446  97.6424 207.8176 0069260 344.0750  15.8284 14.78835054416326
SPROUT                  
1 39770U 14029E   21235.56460106  .00001079  00000-0  12194-3 0  9990
2 39770  97.9209 346.8038 0008945 356.8828   3.2307 14.88583771393329
UNISAT-6                
1 40012U 14033C   21234.87586076  .00000218  00000-0  39208-4 0  9994
2 40012  97.6727  73.7930 0059203  46.4911 314.1197 14.74358230385986
DUCHIFAT-1              
1 40021U 14033M   21235.09084363  .00000427  00000-0  48563-4 0  9997
2 40021  97.9744 176.0034 0011623 310.1241  49.8958 14.91430166390218
QB50P1                  
1 40025U 14033R   21234.79187673  .00000327  00000-0  40333-4 0  9991
2 40025  97.9328 165.6577 0011555 326.7883  33.2607 14.89505768389297
NUDT-PHONESAT           
1 40900U 15049B   21235.30521963  .00003456  00000-0  13325-3 0  9999
2 40900  97.4198 248.9961 0009704 261.1351 225.1692 15.26958801329029
ZDPS 2A                 
1 40901U 15049C   21235.50230197  .00001700  00000-0  82551-4 0  9996
2 40901  97.4628 241.9270 0011680 314.0324 209.6365 15.19787463328151
ZDPS 2B                 
1 40902U 15049D   21235.47804922  .00001984  00000-0  95681-4 0  9998
2 40902  97.4676 239.2838 0011646 311.5256 201.7276 15.19830980328127
XW-2A                   
1 40903U 15049E   21235.44968700  .00003528  00000-0  74423-4 0  9998
2 40903  97.2314 289.7281 0013678 126.0501 358.9082 15.45802936333143
KAITUO 1A               
1 40904U 15049F   21235.54477983  .00001253  00000-0  68051-4 0  9991
2 40904  97.4875 236.4906 0013730 332.0788 184.8313 15.16309146327707
2015-049G               
1 40905U 15049G   21235.50105097  .00000400  00000-0  24888-4 0  9995
2 40905  97.5021 233.5492 0014730 331.2996 182.3223 15.15090672327481
XW-2C                   
1 40906U 15049H   21235.46528152  .00001064  00000-0  57380-4 0  9992
2 40906  97.4883 236.9909 0013480 320.9580 193.5622 15.16888275327721
XW-2D                   
1 40907U 15049J   21235.56974204  .00000937  00000-0  50475-4 0  9993
2 40907  97.4871 236.9110 0012729 316.6349 159.0364 15.17227027327771
LILACSAT-2              
1 40908U 15049K   21235.49024152  .00000538  00000-0  32756-4 0  9993
2 40908  97.5071 234.5795 0015080 334.0032 183.1905 15.14525355327371
XW-2F                   
1 40910U 15049M   21235.57077037  .00001504  00000-0  74466-4 0  9993
2 40910  97.4735 240.0915 0012674 300.3381 180.1796 15.19279702327917
XW-2B                   
1 40911U 15049N   21235.57681567  .00000960  00000-0  51713-4 0  9998
2 40911  97.4865 237.5905 0012602 317.7401 161.0181 15.17142118327664
KAITUO 1B               
1 40912U 15049P   21235.32476543  .00001775  00000-0  81084-4 0  9997
2 40912  97.4447 244.2298 0012499 268.3438 216.5633 15.21850821328364
TIANWANG 1A (TW-1A)     
1 40928U 15051D   21235.04873696  .00005434  00000-0  11067-3 0  9995
2 40928  97.0740 258.3702 0010814  57.4185 330.1813 15.46601676331988
LAPAN-A2                
1 40931U 15052B   21235.47549448  .00000697  00000-0  77923-5 0  9993
2 40931   5.9942 134.3899 0013693 273.8297  86.0353 14.76684864319221
E-ST@R-II               
1 41459U 16025D   21235.35611291  .00002570  00000-0  12753-3 0  9993
2 41459  98.1474  15.5929 0158930 196.5815 163.0238 15.08372314292505
AAUSAT 4                
1 41460U 16025E   21235.37820197  .00005472  00000-0  25268-3 0  9993
2 41460  98.1500  19.8386 0145919 179.2190 180.9308 15.11624993292826
NUSAT-1 (FRESCO)        
1 41557U 16033B   21235.06427174  .00001943  00000-0  69922-4 0  9998
2 41557  97.3944 328.6453 0012855   6.5374 118.2818 15.29755894291711
